H1 CPF 01  gfz 2021 10 30 12  8032 tandemx   
H2 1003001  6202 36605    2021 10 30 12 59 42 2021 11 04 00 00 42   120 1 1  0 0 0
H9
10 0 59519  39582.000000  0   -1999580.884   6334789.217  -1835437.326
10 0 59519  39702.000000  0   -1880152.666   6560939.944   -949963.972
10 0 59519  39822.000000  0   -1724960.712   6670114.511    -47783.072
10 0 59519  39942.000000  0   -1538766.458   6659749.973    855237.489
10 0 59519  40062.000000  0   -1326907.518   6529484.283   1743199.025
10 0 59519  40182.000000  0   -1095164.066   6281171.852   2600462.640
10 0 59519  40302.000000  0    -849616.985   5918855.166   3411931.920
10 0 59519  40422.000000  0    -596501.772   5448694.369   4163324.239
10 0 59519  40542.000000  0    -342061.943   4878856.100   4841427.542
10 0 59519  40662.000000  0     -92403.398   4219358.855   5434334.910
10 0 59519  40782.000000  0     146644.647   3481887.722   5931648.720
10 0 59519  40902.000000  0     369658.616   2679579.469   6324660.310
10 0 59519  41022.000000  0     571738.016   1826781.209   6606496.222
10 0 59519  41142.000000  0     748608.891    938789.592   6772232.643
10 0 59519  41262.000000  0     896711.163     31574.127   6818975.460
10 0 59519  41382.000000  0    1013268.716   -878508.814   6745907.773
10 0 59519  41502.000000  0    1096341.001  -1775010.657   6554304.361
10 0 59519  41622.000000  0    1144855.458  -2641687.570   6247511.153
10 0 59519  41742.000000  0    1158620.194  -3462796.240   5830890.720
10 0 59519  41862.000000  0    1138315.912  -4223382.282   5311732.194
10 0 59519  41982.000000  0    1085469.379  -4909555.098   4699129.129
10 0 59519  42102.000000  0    1002407.789  -5508747.796   4003827.268
10 0 59519  42222.000000  0     892194.546  -6009957.495   3238040.305
10 0 59519  42342.000000  0     758547.956  -6403957.451   2415235.893
10 0 59519  42462.000000  0     605743.566  -6683476.252   1549897.338
10 0 59519  42582.000000  0     438503.345  -6843340.466    657265.065
10 0 59519  42702.000000  0     261874.271  -6880578.459   -246938.993
10 0 59519  42822.000000  0      81098.392  -6794477.399  -1146799.246
10 0 59519  42942.000000  0     -98520.279  -6586592.838  -2026495.808
10 0 59519  43062.000000  0    -271749.121  -6260713.863  -2870589.236
10 0 59519  43182.000000  0    -433557.618  -5822785.116  -3664296.476
10 0 59519  43302.000000  0    -579242.318  -5280786.535  -4393752.347
10 0 59519  43422.000000  0    -704542.576  -4644574.247  -5046249.585
10 0 59519  43542.000000  0    -805744.548  -3925689.456  -5610453.902
10 0 59519  43662.000000  0    -879771.184  -3137139.287  -6076592.110
10 0 59519  43782.000000  0    -924256.490  -2293154.639  -6436610.829
10 0 59519  43902.000000  0    -937603.100  -1408930.028  -6684303.990
10 0 59519  44022.000000  0    -919022.467   -500351.240  -6815409.114
10 0 59519  44142.000000  0    -868556.951    416286.184  -6827672.867
10 0 59519  44262.000000  0    -787082.972   1324562.394  -6720884.376
10 0 59519  44382.000000  0    -676296.204   2208219.543  -6496878.443
10 0 59519  44502.000000  0    -538678.886   3051445.403  -6159507.979
10 0 59519  44622.000000  0    -377448.822   3839152.323  -5714586.277
10 0 59519  44742.000000  0    -196490.864   4557246.303  -5169796.512
10 0 59519  44862.000000  0       -272.457   5192881.355  -4534570.762
10 0 59519  44982.000000  0     206255.503   5734696.426  -3819937.776
10 0 59519  45102.000000  0     417771.207   6173028.209  -3038340.293
10 0 59519  45222.000000  0     628705.487   6500095.154  -2203424.983
10 0 59519  45342.000000  0     833373.917   6710148.849  -1329807.115
10 0 59519  45462.000000  0    1026114.353   6799587.344   -432813.358
10 0 59519  45582.000000  0    1201426.632   6767026.882    471792.037
10 0 59519  45702.000000  0    1354110.606   6613328.510   1368091.884
10 0 59519  45822.000000  0    1479397.968   6341579.841   2240303.932
10 0 59519  45942.000000  0    1573075.393   5957033.283   3073066.851
10 0 59519  46062.000000  0    1631596.354   5467001.381   3851718.486
10 0 59519  46182.000000  0    1652177.828   4880710.324   4562560.309
10 0 59519  46302.000000  0    1632880.795   4209116.595   5193102.450
10 0 59519  46422.000000  0    1572669.592   3464689.878   5732282.110
10 0 59519  46542.000000  0    1471452.435   2661173.971   6170652.092
10 0 59519  46662.000000  0    1330101.125   1813326.784   6500542.125
10 0 59519  46782.000000  0    1150449.709    936643.966   6716187.375
10 0 59519  46902.000000  0     935272.202     47073.070   6813822.186
10 0 59519  47022.000000  0     688240.007   -839275.183   6791741.858
10 0 59519  47142.000000  0     413859.076  -1706418.646   6650332.060
10 0 59519  47262.000000  0     117387.599  -2538791.863   6392062.482
10 0 59519  47382.000000  0    -195264.335  -3321526.661   6021446.156
10 0 59519  47502.000000  0    -517650.255  -4040718.842   5544962.657
10 0 59519  47622.000000  0    -842916.436  -4683676.350   4970950.888
10 0 59519  47742.000000  0   -1163943.947  -5239149.603   4309472.200
10 0 59519  47862.000000  0   -1473501.483  -5697538.834   3572139.191
10 0 59519  47982.000000  0   -1764403.979  -6051069.699   2771912.944
10 0 59519  48102.000000  0   -2029674.423  -6293933.862   1922874.963
10 0 59519  48222.000000  0   -2262705.222  -6422392.174   1039975.885
10 0 59519  48342.000000  0   -2457413.250  -6434836.458    138765.540
10 0 59519  48462.000000  0   -2608385.564  -6331808.720   -764889.111
10 0 59519  48582.000000  0   -2711012.170  -6115976.818  -1655092.172
10 0 59519  48702.000000  0   -2761602.805  -5792067.328  -2516206.701
10 0 59519  48822.000000  0   -2757484.547  -5366757.608  -3333136.297
10 0 59519  48942.000000  0   -2697077.378  -4848529.359  -4091593.836
10 0 59519  49062.000000  0   -2579946.209  -4247488.980  -4778350.544
10 0 59519  49182.000000  0   -2406829.190  -3575160.957  -5381461.815
10 0 59519  49302.000000  0   -2179642.489  -2844259.295  -5890467.265
10 0 59519  49422.000000  0   -1901461.308  -2068441.580  -6296562.780
10 0 59519  49542.000000  0   -1576476.908  -1262050.679  -6592741.763
10 0 59519  49662.000000  0   -1209932.263   -439850.042  -6773904.133
10 0 59519  49782.000000  0    -808037.981    383242.725  -6836933.993
10 0 59519  49902.000000  0    -377868.323   1192419.834  -6780747.130
10 0 59519  50022.000000  0      72760.439   1973242.703  -6606307.316
10 0 59519  50142.000000  0     535427.083   2711892.891  -6316612.769
10 0 59519  50262.000000  0    1001259.399   3395413.375  -5916651.911
10 0 59519  50382.000000  0    1461100.254   4011934.593  -5413325.274
10 0 59519  50502.000000  0    1905683.456   4550881.708  -4815337.690
10 0 59519  50622.000000  0    2325817.837   5003161.747  -4133059.626
10 0 59519  50742.000000  0    2712575.129   5361325.154  -3378356.682
10 0 59519  50862.000000  0    3057478.090   5619697.984  -2564391.367
10 0 59519  50982.000000  0    3352685.566   5774482.212  -1705398.002
10 0 59519  51102.000000  0    3591169.105   5823820.108   -816434.192
10 0 59519  51222.000000  0    3766876.029   5767820.554     86886.834
10 0 59519  51342.000000  0    3874874.750   5608545.718    988676.826
10 0 59519  51462.000000  0    3911478.969   5349957.680   1873059.670
10 0 59519  51582.000000  0    3874347.412   4997827.765   2724458.445
10 0 59519  51702.000000  0    3762556.186   4559610.405   3527879.870
10 0 59519  51822.000000  0    3576640.409   4044280.388   4269184.135
10 0 59519  51942.000000  0    3318608.469   3462145.259   4935337.237
10 0 59519  52062.000000  0    2991921.931   2824633.225   5514643.503
10 0 59519  52182.000000  0    2601446.823   2144061.235   5996946.758
10 0 59519  52302.000000  0    2153379.834   1433392.553   6373803.261
10 0 59519  52422.000000  0    1655146.614    705985.746   6638624.120
10 0 59519  52542.000000  0    1115275.591    -24657.463   6786783.482
10 0 59519  52662.000000  0     543250.599   -745141.501   6815695.154
10 0 59519  52782.000000  0     -50656.173  -1442423.012   6724855.785
10 0 59519  52902.000000  0    -655568.896  -2104046.811   6515852.562
10 0 59519  53022.000000  0   -1260207.034  -2718368.534   6192336.092
10 0 59519  53142.000000  0   -1853093.405  -3274759.611   5759959.302
10 0 59519  53262.000000  0   -2422770.380  -3763793.222   5226285.936
10 0 59519  53382.000000  0   -2958023.365  -4177409.062   4600666.085
10 0 59519  53502.000000  0   -3448105.744  -4509052.106   3894077.283
10 0 59519  53622.000000  0   -3882957.920  -4753781.731   3118934.188
10 0 59519  53742.000000  0   -4253416.013  -4908349.726   2288871.251
10 0 59519  53862.000000  0   -4551407.462  -4971245.577   1418501.235
10 0 59519  53982.000000  0   -4770127.853  -4942706.093    523152.754
10 0 59519  54102.000000  0   -4904193.969  -4824689.435   -381406.755
10 0 59519  54222.000000  0   -4949769.513  -4620814.263  -1279257.506
10 0 59519  54342.000000  0   -4904659.203  -4336264.782  -2154617.370
10 0 59519  54462.000000  0   -4768368.456  -3977663.739  -2992127.387
10 0 59519  54582.000000  0   -4542128.183  -3552918.246  -3777125.485
10 0 59519  54702.000000  0   -4228885.434  -3071043.588  -4495903.945
10 0 59519  54822.000000  0   -3833260.347  -2541968.769  -5135946.335
10 0 59519  54942.000000  0   -3361470.775  -1976328.884  -5686139.133
10 0 59519  55062.000000  0   -2821227.632  -1385249.619  -6136955.553
10 0 59519  55182.000000  0   -2221603.278   -780127.987  -6480610.009
10 0 59519  55302.000000  0   -1572874.862   -172414.041  -6711180.998
10 0 59519  55422.000000  0    -886347.419    426601.829  -6824701.091
10 0 59519  55542.000000  0    -174160.348   1005992.910  -6819217.546
10 0 59519  55662.000000  0     550922.138   1555390.356  -6694821.996
10 0 59519  55782.000000  0    1275733.165   2065163.527  -6453650.996
10 0 59519  55902.000000  0    1986937.844   2526586.455  -6099854.074
10 0 59519  56022.000000  0    2671274.044   2931986.389  -5639529.966
99
